start=new Date('2022-09-07T00:00:00.000Z').valueOf();
sats=[{"EPHEMERIS_TYPE":"0","BSTAR":"-0.00014245000000","GP_ID":"211923525","MEAN_ANOMALY":"89.0216","REF_FRAME":"TEME","OBJECT_ID":"2022-051B","MEAN_MOTION_DOT":"-0.00002553","DECAY_DATE":null,"OBJECT_TYPE":"PAYLOAD","TLE_LINE1":"1 52534U 22051B   22249.91667824 -.00002553  00000-0 -14245-3 0  9997","PERIAPSIS":"538.434","COUNTRY_CODE":"US","RCS_SIZE":"LARGE","CLASSIFICATION_TYPE":"U","FILE":"3561419","LAUNCH_DATE":"2022-05-13","EPOCH":"2022-09-06T22:00:00.999936","TLE_LINE2":"2 52534  53.2174 114.2616 0002018  59.7176  89.0216 15.08812231  1301","APOAPSIS":"541.226","RA_OF_ASC_NODE":"114.2616","CENTER_NAME":"EARTH","SITE":"AFWTR","PERIOD":"95.439","REV_AT_EPOCH":"130","ARG_OF_PERICENTER":"59.7176","MEAN_MOTION_DDOT":"0.0000000000000","OBJECT_NAME":"STARLINK-3952","ECCENTRICITY":"0.00020180","MEAN_MOTION":"15.08812231","TIME_SYSTEM":"UTC","ELEMENT_SET_NO":"999","SEMIMAJOR_AXIS":"6917.965","INCLINATION":"53.2174","MEAN_ELEMENT_THEORY":"SGP4","NORAD_CAT_ID":"52534"},{"LAUNCH_DATE":"2022-05-13","EPOCH":"2022-09-06T22:00:00.999936","TLE_LINE2":"2 52535  53.2159 114.2552 0002261  63.7513 105.0137 15.08825256 18304","APOAPSIS":"541.355","RA_OF_ASC_NODE":"114.2552","SITE":"AFWTR","CENTER_NAME":"EARTH","PERIOD":"95.438","ARG_OF_PERICENTER":"63.7513","REV_AT_EPOCH":"1830","MEAN_MOTION_DDOT":"0.0000000000000","OBJECT_NAME":"STARLINK-3958","ECCENTRICITY":"0.00022610","MEAN_MOTION":"15.08825256","TIME_SYSTEM":"UTC","ELEMENT_SET_NO":"999","SEMIMAJOR_AXIS":"6917.925","INCLINATION":"53.2159","NORAD_CAT_ID":"52535","MEAN_ELEMENT_THEORY":"SGP4","EPHEMERIS_TYPE":"0","BSTAR":"-0.00003467600000","GP_ID":"211896800","MEAN_ANOMALY":"105.0137","REF_FRAME":"TEME","OBJECT_ID":"2022-051C","MEAN_MOTION_DOT":"-0.00000840","DECAY_DATE":null,"OBJECT_TYPE":"PAYLOAD","TLE_LINE1":"1 52535U 22051C   22249.91667824 -.00000840  00000-0 -34676-4 0  9996","PERIAPSIS":"538.226","COUNTRY_CODE":"US","RCS_SIZE":"LARGE","CLASSIFICATION_TYPE":"U","FILE":"3561305"},{"FILE":"3561419","CLASSIFICATION_TYPE":"U","RCS_SIZE":"LARGE","PERIAPSIS":"538.574","TLE_LINE1":"1 52536U 22051D   22249.91667824  .00000292  00000-0  36470-4 0  9990","OBJECT_TYPE":"PAYLOAD","COUNTRY_CODE":"US","REF_FRAME":"TEME","DECAY_DATE":null,"MEAN_MOTION_DOT":"0.00000292","OBJECT_ID":"2022-051D","GP_ID":"211923784","BSTAR":"0.00003647000000","EPHEMERIS_TYPE":"0","MEAN_ANOMALY":"126.0201","SEMIMAJOR_AXIS":"6917.980","ELEMENT_SET_NO":"999","TIME_SYSTEM":"UTC","MEAN_ELEMENT_THEORY":"SGP4","NORAD_CAT_ID":"52536","INCLINATION":"53.2164","OBJECT_NAME":"STARLINK-3964","MEAN_MOTION":"15.08807280","ECCENTRICITY":"0.00018380","RA_OF_ASC_NODE":"114.2560","MEAN_MOTION_DDOT":"0.0000000000000","ARG_OF_PERICENTER":"62.7128","REV_AT_EPOCH":"130","SITE":"AFWTR","PERIOD":"95.440","CENTER_NAME":"EARTH","TLE_LINE2":"2 52536  53.2164 114.2560 0001838  62.7128 126.0201 15.08807280  1304","LAUNCH_DATE":"2022-05-13","EPOCH":"2022-09-06T22:00:00.999936","APOAPSIS":"541.117"},{"BSTAR":"0.00002131300000","GP_ID":"211924091","EPHEMERIS_TYPE":"0","MEAN_ANOMALY":"140.8540","REF_FRAME":"TEME","DECAY_DATE":null,"OBJECT_ID":"2022-051E","MEAN_MOTION_DOT":"0.00000051","TLE_LINE1":"1 52537U 22051E   22249.91667824  .00000051  00000-0  21313-4 0  9994","PERIAPSIS":"538.440","OBJECT_TYPE":"PAYLOAD","COUNTRY_CODE":"US","CLASSIFICATION_TYPE":"U","FILE":"3561419","RCS_SIZE":"LARGE","TLE_LINE2":"2 52537  53.2172 114.2596 0002048  67.9173 140.8540 15.08803646  1306","LAUNCH_DATE":"2022-05-13","EPOCH":"2022-09-06T22:00:00.999936","APOAPSIS":"541.273","RA_OF_ASC_NODE":"114.2596","MEAN_MOTION_DDOT":"0.0000000000000","CENTER_NAME":"EARTH","SITE":"AFWTR","PERIOD":"95.440","REV_AT_EPOCH":"130","ARG_OF_PERICENTER":"67.9173","OBJECT_NAME":"STARLINK-3897","ECCENTRICITY":"0.00020480","MEAN_MOTION":"15.08803646","SEMIMAJOR_AXIS":"6917.992","ELEMENT_SET_NO":"999","TIME_SYSTEM":"UTC","INCLINATION":"53.2172","MEAN_ELEMENT_THEORY":"SGP4","NORAD_CAT_ID":"52537"},{"RCS_SIZE":"LARGE","CLASSIFICATION_TYPE":"U","FILE":"3561305","OBJECT_TYPE":"PAYLOAD","TLE_LINE1":"1 52538U 22051F   22249.91667824  .00000354  00000-0  40386-4 0  9992","PERIAPSIS":"538.584","COUNTRY_CODE":"US","REF_FRAME":"TEME","OBJECT_ID":"2022-051F","MEAN_MOTION_DOT":"0.00000354","DECAY_DATE":null,"EPHEMERIS_TYPE":"0","BSTAR":"0.00004038600000","GP_ID":"211896804","MEAN_ANOMALY":"185.6915","TIME_SYSTEM":"UTC","ELEMENT_SET_NO":"999","SEMIMAJOR_AXIS":"6917.928","INCLINATION":"53.2171","MEAN_ELEMENT_THEORY":"SGP4","NORAD_CAT_ID":"52538","OBJECT_NAME":"STARLINK-3933","ECCENTRICITY":"0.00017470","MEAN_MOTION":"15.08824454","RA_OF_ASC_NODE":"114.2538","SITE":"AFWTR","PERIOD":"95.439","CENTER_NAME":"EARTH","ARG_OF_PERICENTER":"63.0336","REV_AT_EPOCH":"1831","MEAN_MOTION_DDOT":"0.0000000000000","EPOCH":"2022-09-06T22:00:00.999936","LAUNCH_DATE":"2022-05-13","TLE_LINE2":"2 52538  53.2171 114.2538 0001747  63.0336 185.6915 15.08824454 18317","APOAPSIS":"541.001"},{"INCLINATION":"53.2159","NORAD_CAT_ID":"52539","MEAN_ELEMENT_THEORY":"SGP4","TIME_SYSTEM":"UTC","SEMIMAJOR_AXIS":"6917.940","ELEMENT_SET_NO":"999","ECCENTRICITY":"0.00021060","MEAN_MOTION":"15.08820417","OBJECT_NAME":"STARLINK-3757","CENTER_NAME":"EARTH","SITE":"AFWTR","PERIOD":"95.439","ARG_OF_PERICENTER":"64.6152","REV_AT_EPOCH":"1831","MEAN_MOTION_DDOT":"0.0000000000000","RA_OF_ASC_NODE":"114.2599","APOAPSIS":"541.262","EPOCH":"2022-09-06T22:00:00.999936","LAUNCH_DATE":"2022-05-13","TLE_LINE2":"2 52539  53.2159 114.2599 0002106  64.6152 164.1309 15.08820417 18318","RCS_SIZE":"LARGE","CLASSIFICATION_TYPE":"U","FILE":"3561305","COUNTRY_CODE":"US","OBJECT_TYPE":"PAYLOAD","TLE_LINE1":"1 52539U 22051G   22249.91667824  .00000110  00000-0  25046-4 0  9999","PERIAPSIS":"538.348","OBJECT_ID":"2022-051G","MEAN_MOTION_DOT":"0.00000110","DECAY_DATE":null,"REF_FRAME":"TEME","MEAN_ANOMALY":"164.1309","EPHEMERIS_TYPE":"0","BSTAR":"0.00002504600000","GP_ID":"211896799"},{"TLE_LINE2":"2 52540  53.2173 114.2522 0001888  60.4091 248.3345 15.08803512 18316","LAUNCH_DATE":"2022-05-13","EPOCH":"2022-09-06T22:00:00.999936","APOAPSIS":"541.163","RA_OF_ASC_NODE":"114.2522","MEAN_MOTION_DDOT":"0.0000000000000","ARG_OF_PERICENTER":"60.4091","REV_AT_EPOCH":"1831","SITE":"AFWTR","CENTER_NAME":"EARTH","PERIOD":"95.440","OBJECT_NAME":"STARLINK-3940","MEAN_MOTION":"15.08803512","ECCENTRICITY":"0.00018880","ELEMENT_SET_NO":"999","SEMIMAJOR_AXIS":"6917.992","TIME_SYSTEM":"UTC","NORAD_CAT_ID":"52540","MEAN_ELEMENT_THEORY":"SGP4","INCLINATION":"53.2173","GP_ID":"211896321","BSTAR":"-0.00014862000000","EPHEMERIS_TYPE":"0","MEAN_ANOMALY":"248.3345","REF_FRAME":"TEME","DECAY_DATE":null,"MEAN_MOTION_DOT":"-0.00002650","OBJECT_ID":"2022-051H","PERIAPSIS":"538.551","TLE_LINE1":"1 52540U 22051H   22249.91667824 -.00002650  00000-0 -14862-3 0  9997","OBJECT_TYPE":"PAYLOAD","COUNTRY_CODE":"US","FILE":"3561305","CLASSIFICATION_TYPE":"U","RCS_SIZE":"LARGE"},{"EPHEMERIS_TYPE":"0","BSTAR":"-0.00044043000000","GP_ID":"211923679","MEAN_ANOMALY":"56.5757","REF_FRAME":"TEME","OBJECT_ID":"2022-051J","MEAN_MOTION_DOT":"-0.00007289","DECAY_DATE":null,"OBJECT_TYPE":"PAYLOAD","TLE_LINE1":"1 52541U 22051J   22249.91667824 -.00007289  00000-0 -44043-3 0  9995","PERIAPSIS":"538.267","COUNTRY_CODE":"US","RCS_SIZE":"LARGE","CLASSIFICATION_TYPE":"U","FILE":"3561419","EPOCH":"2022-09-06T22:00:00.999936","LAUNCH_DATE":"2022-05-13","TLE_LINE2":"2 52541  53.2132 119.2569 0002196  64.6704  56.5757 15.08826690  1307","APOAPSIS":"541.305","RA_OF_ASC_NODE":"119.2569","CENTER_NAME":"EARTH","SITE":"AFWTR","PERIOD":"95.438","ARG_OF_PERICENTER":"64.6704","REV_AT_EPOCH":"130","MEAN_MOTION_DDOT":"0.0000000000000","OBJECT_NAME":"STARLINK-3845","ECCENTRICITY":"0.00021960","MEAN_MOTION":"15.08826690","TIME_SYSTEM":"UTC","SEMIMAJOR_AXIS":"6917.921","ELEMENT_SET_NO":"999","INCLINATION":"53.2132","NORAD_CAT_ID":"52541","MEAN_ELEMENT_THEORY":"SGP4"},{"OBJECT_TYPE":"PAYLOAD","TLE_LINE1":"1 52542U 22051K   22249.91667824 -.00003635  00000-0 -21057-3 0  9997","PERIAPSIS":"538.635","COUNTRY_CODE":"US","RCS_SIZE":"LARGE","CLASSIFICATION_TYPE":"U","FILE":"3561419","EPHEMERIS_TYPE":"0","BSTAR":"-0.00021057000000","GP_ID":"211923526","MEAN_ANOMALY":"273.1318","REF_FRAME":"TEME","OBJECT_ID":"2022-051K","MEAN_MOTION_DOT":"-0.00003635","DECAY_DATE":null,"OBJECT_NAME":"STARLINK-3937","ECCENTRICITY":"0.00017340","MEAN_MOTION":"15.08810882","TIME_SYSTEM":"UTC","SEMIMAJOR_AXIS":"6917.969","ELEMENT_SET_NO":"999","INCLINATION":"53.2182","MEAN_ELEMENT_THEORY":"SGP4","NORAD_CAT_ID":"52542","LAUNCH_DATE":"2022-05-13","EPOCH":"2022-09-06T22:00:00.999936","TLE_LINE2":"2 52542  53.2182 114.2368 0001734  55.6121 273.1318 15.08810882  1301","APOAPSIS":"541.034","RA_OF_ASC_NODE":"114.2368","SITE":"AFWTR","CENTER_NAME":"EARTH","PERIOD":"95.439","ARG_OF_PERICENTER":"55.6121","REV_AT_EPOCH":"130","MEAN_MOTION_DDOT":"0.0000000000000"},{"MEAN_ANOMALY":"210.9411","EPHEMERIS_TYPE":"0","GP_ID":"211891691","BSTAR":"-0.00003157200000","MEAN_MOTION_DOT":"-0.00000790","OBJECT_ID":"2022-051L","DECAY_DATE":null,"REF_FRAME":"TEME","COUNTRY_CODE":"US","OBJECT_TYPE":"PAYLOAD","PERIAPSIS":"538.509","TLE_LINE1":"1 52543U 22051L   22249.91667824 -.00000790  00000-0 -31572-4 0  9991","RCS_SIZE":"LARGE","FILE":"3561102","CLASSIFICATION_TYPE":"U","APOAPSIS":"541.128","EPOCH":"2022-09-06T22:00:00.999936","LAUNCH_DATE":"2022-05-13","TLE_LINE2":"2 52543  53.2163 114.2590 0001893  57.8089 210.9411 15.08816181 18311","ARG_OF_PERICENTER":"57.8089","REV_AT_EPOCH":"1831","PERIOD":"95.439","SITE":"AFWTR","CENTER_NAME":"EARTH","MEAN_MOTION_DDOT":"0.0000000000000","RA_OF_ASC_NODE":"114.2590","MEAN_MOTION":"15.08816181","ECCENTRICITY":"0.00018930","OBJECT_NAME":"STARLINK-3926","NORAD_CAT_ID":"52543","MEAN_ELEMENT_THEORY":"SGP4","INCLINATION":"53.2163","TIME_SYSTEM":"UTC","ELEMENT_SET_NO":"999","SEMIMAJOR_AXIS":"6917.953"}];
